{
  "norad_id": 27632,
  "name": "NIMIQ 2",
  "history": [
    {
      "epoch": "2026-03-28T11:59:14.679744Z",
      "apogee_km": 35813.57913214117,
      "perigee_km": 35759.46837969988,
      "latitude_deg": -2.9530042819394358,
      "longitude_deg": -109.47234454312655,
      "height_km": 35795.54128772777,
      "semi_major_axis_km": 42164.66075592052,
      "eccentricity": 0.00064166,
      "inclination_deg": 9.2614,
      "raan_deg": 57.7356,
      "arg_perigee_deg": 308.2875,
      "mean_anomaly_deg": 250.5103,
      "mean_motion_rev_day": 1.00272039
    },
    {
      "epoch": "2026-03-28T22:49:24.722112Z",
      "apogee_km": 35813.653646914674,
      "perigee_km": 35759.37087745454,
      "latitude_deg": 0.2885284896219363,
      "longitude_deg": -109.14772461270643,
      "height_km": 35769.56796989233,
      "semi_major_axis_km": 42164.64926218461,
      "eccentricity": 0.0006437,
      "inclination_deg": 9.2625,
      "raan_deg": 57.7311,
      "arg_perigee_deg": 308.9059,
      "mean_anomaly_deg": 52.8827,
      "mean_motion_rev_day": 1.0027208
    },
    {
      "epoch": "2026-03-29T12:24:25.533216Z",
      "apogee_km": 35813.79751543935,
      "perigee_km": 35759.2785905958,
      "latitude_deg": -4.040962036146035,
      "longitude_deg": -109.54471020039979,
      "height_km": 35793.03814859456,
      "semi_major_axis_km": 42164.67505301758,
      "eccentricity": 0.0006465,
      "inclination_deg": 9.2638,
      "raan_deg": 57.7254,
      "arg_perigee_deg": 309.5322,
      "mean_anomaly_deg": 256.5728,
      "mean_motion_rev_day": 1.00271988
    },
    {
      "epoch": "2026-03-29T12:24:25.534080Z",
      "apogee_km": 35813.7970937926,
      "perigee_km": 35759.27901224255,
      "latitude_deg": -4.04096219847258,
      "longitude_deg": -109.54471269937193,
      "height_km": 35793.03805009471,
      "semi_major_axis_km": 42164.67505301758,
      "eccentricity": 0.00064649,
      "inclination_deg": 9.2638,
      "raan_deg": 57.7254,
      "arg_perigee_deg": 309.5322,
      "mean_anomaly_deg": 256.5728,
      "mean_motion_rev_day": 1.00271988
    },
    {
      "epoch": "2026-03-30T07:55:06.770208Z",
      "apogee_km": 35813.82536678679,
      "perigee_km": 35759.22887309772,
      "latitude_deg": 5.992306454335575,
      "longitude_deg": -108.8232512672692,
      "height_km": 35812.56840897421,
      "semi_major_axis_km": 42164.66411994226,
      "eccentricity": 0.00064742,
      "inclination_deg": 9.2655,
      "raan_deg": 57.7156,
      "arg_perigee_deg": 310.293,
      "mean_anomaly_deg": 189.294,
      "mean_motion_rev_day": 1.00272027
    },
    {
      "epoch": "2026-03-31T13:47:14.746272Z",
      "apogee_km": 35814.109051194166,
      "perigee_km": 35758.8902430411,
      "latitude_deg": -6.946077966080191,
      "longitude_deg": -109.6309380571019,
      "height_km": 35784.52169307887,
      "semi_major_axis_km": 42164.63664711764,
      "eccentricity": 0.0006548,
      "inclination_deg": 9.2684,
      "raan_deg": 57.7022,
      "arg_perigee_deg": 313.2779,
      "mean_anomaly_deg": 275.5816,
      "mean_motion_rev_day": 1.00272125
    },
    {
      "epoch": "2026-04-01T14:18:10.001376Z",
      "apogee_km": 35814.1222876872,
      "perigee_km": 35758.852897771045,
      "latitude_deg": -7.799042642036105,
      "longitude_deg": -109.60070963269693,
      "height_km": 35781.00572371649,
      "semi_major_axis_km": 42164.624592729124,
      "eccentricity": 0.0006554,
      "inclination_deg": 9.2707,
      "raan_deg": 57.6903,
      "arg_perigee_deg": 314.2874,
      "mean_anomaly_deg": 283.3207,
      "mean_motion_rev_day": 1.00272168
    },
    {
      "epoch": "2026-04-02T14:08:01.970016Z",
      "apogee_km": 35814.16484574637,
      "perigee_km": 35758.70157009487,
      "latitude_deg": -7.6644610368607,
      "longitude_deg": -109.61045963561718,
      "height_km": 35782.297052267444,
      "semi_major_axis_km": 42164.57020792062,
      "eccentricity": 0.0006577,
      "inclination_deg": 9.273,
      "raan_deg": 57.6796,
      "arg_perigee_deg": 315.6646,
      "mean_anomaly_deg": 280.4004,
      "mean_motion_rev_day": 1.00272362
    }
  ]
}